[{"OBJECT_NAME":"TEVEL2-5","OBJECT_ID":"2025-052E","EPOCH":"2026-03-09T23:11:54.246048","MEAN_MOTION":15.30817434,"ECCENTRICITY":0.00047002,"INCLINATION":97.4013,"RA_OF_ASC_NODE":325.3677,"ARG_OF_PERICENTER":95.3936,"MEAN_ANOMALY":264.7842,"EPHEMERIS_TYPE":0,"CLASSIFICATION_TYPE":"U","NORAD_CAT_ID":63214,"ELEMENT_SET_NO":999,"REV_AT_EPOCH":5491,"BSTAR":0.00071764727,"MEAN_MOTION_DOT":0.00021339,"MEAN_MOTION_DDOT":0},{"OBJECT_NAME":"STARLINK-35630","OBJECT_ID":"2025-237T","EPOCH":"2026-03-09T07:40:35.894496","MEAN_MOTION":15.30196359,"ECCENTRICITY":0.00015874,"INCLINATION":53.1613,"RA_OF_ASC_NODE":41.3639,"ARG_OF_PERICENTER":83.842,"MEAN_ANOMALY":276.2762,"EPHEMERIS_TYPE":0,"CLASSIFICATION_TYPE":"U","NORAD_CAT_ID":66131,"ELEMENT_SET_NO":999,"REV_AT_EPOCH":2255,"BSTAR":0.0010811744,"MEAN_MOTION_DOT":0.00031796,"MEAN_MOTION_DDOT":0}]
